STARLINK-2171
1 47754U 21017AJ  26092.83335647  .00279782  00000+0  16323-2 0  9997
2 47754  53.0444  48.5300 0002241 181.0853 261.9868 15.77075520  5907
